OBJECT_NAME,OBJECT_ID,EPOCH,MEAN_MOTION,ECCENTRICITY,INCLINATION,RA_OF_ASC_NODE,ARG_OF_PERICENTER,MEAN_ANOMALY,EPHEMERIS_TYPE,CLASSIFICATION_TYPE,NORAD_CAT_ID,ELEMENT_SET_NO,REV_AT_EPOCH,BSTAR,MEAN_MOTION_DOT,MEAN_MOTION_DDOT
STARLINK-37896,2026-157AD,2026-07-15T20:00:01.999008,15.97521248,.0000983,53.1589,292.4200,65.1322,168.7440,0,U,69970,999,225,-.49049E-2,-.2221223E-1,.14072E-2
STARLINK-37922,2026-157AE,2026-07-15T20:00:01.999008,15.97545275,.0001039,53.1588,292.4182,67.1577,167.5659,0,U,69971,999,225,-.49261E-2,-.2233682E-1,.14228E-2
CHUANG XIN 26 (CX-26),2026-158A,2026-07-13T12:20:46.071168,14.25122238,.0004887,49.9860,287.5119,294.2352,65.8050,0,U,69972,999,46,-.21871415E-4,-.212E-5,0
CZ-10B DEB,2026-158B,2026-07-13T14:02:35.409120,14.24885997,.0005701,49.9846,287.2193,305.8104,54.2279,0,U,69973,999,47,.11013E-3,.99E-6,0
CZ-10B R/B,2026-158C,2026-07-13T13:30:02.623104,14.64293949,.01979448,49.9631,286.3519,194.8878,164.6170,0,U,69974,999,48,.55130296E-4,.143E-5,0
STARLINK-38024,2026-159A,2026-07-15T20:00:01.999008,15.96104038,.000143,97.2850,35.4874,90.8207,164.5743,0,U,69975,999,195,-.46803E-2,-.1894281E-1,.10282E-2
STARLINK-37993,2026-159B,2026-07-15T20:00:01.999008,15.96233185,.0001529,97.2850,35.4875,93.9867,162.2754,0,U,69976,999,195,-.45911E-2,-.1871448E-1,.10064E-2
STARLINK-37995,2026-159C,2026-07-15T20:00:01.999008,15.96362584,.0001566,97.2849,35.4880,93.2316,163.9612,0,U,69977,999,195,-.44903E-2,-.184351E-1,.9798E-3
STARLINK-38057,2026-159D,2026-07-15T20:00:01.999008,15.96509576,.000157,97.2849,35.4882,90.5938,167.6097,0,U,69978,999,195,-.44158E-2,-.1827594E-1,.96553E-3
STARLINK-38063,2026-159E,2026-07-15T20:00:01.999008,15.96665517,.0001545,97.2849,35.4888,89.1120,170.1322,0,U,69979,999,195,-.4377E-2,-.1826875E-1,.96647E-3
STARLINK-38093,2026-159F,2026-07-15T20:00:01.999008,15.96816489,.000142,97.2848,35.4891,95.6310,164.6759,0,U,69980,999,195,-.43093E-2,-.1813535E-1,.95485E-3
STARLINK-38050,2026-159G,2026-07-15T20:00:01.999008,15.96956889,.0001511,97.2848,35.4895,88.1969,173.0896,0,U,69981,999,195,-.42565E-2,-.1805174E-1,.94808E-3
STARLINK-38065,2026-159H,2026-07-15T20:00:01.999008,15.97096735,.0001457,97.2847,35.4903,94.2470,168.0642,0,U,69982,999,195,-.41702E-2,-.1782339E-1,.92716E-3
STARLINK-38077,2026-159J,2026-07-15T20:00:01.999008,15.97233717,.000137,97.2847,35.4907,95.4519,167.8671,0,U,69983,999,195,-.40995E-2,-.176545E-1,.91215E-3
STARLINK-38068,2026-159K,2026-07-15T20:00:01.999008,15.97360946,.0001489,97.2846,35.4910,94.6637,169.5433,0,U,69984,999,195,-.40616E-2,-.1761396E-1,.9095E-3
STARLINK-38089,2026-159L,2026-07-15T20:00:01.999008,15.97498219,.0001382,97.2846,35.4914,98.2189,167.0321,0,U,69985,999,195,-.3976E-2,-.1737527E-1,.88793E-3
STARLINK-38073,2026-159M,2026-07-15T20:00:01.999008,15.97634418,.0001514,97.2846,35.4918,93.0878,173.1242,0,U,69986,999,195,-.39446E-2,-.1736753E-1,.88852E-3
STARLINK-38099,2026-159N,2026-07-15T20:00:01.999008,15.97758278,.0001503,97.2845,35.4921,94.8700,172.2528,0,U,69987,999,195,-.38902E-2,-.1724631E-1,.87816E-3
STARLINK-38064,2026-159P,2026-07-15T20:00:01.999008,15.98005127,.0001301,97.2844,35.4928,88.8838,180.1741,0,U,69988,999,195,-.37364E-2,-.167959E-1,.83811E-3
STARLINK-38080,2026-159Q,2026-07-15T20:00:01.999008,15.97880245,.000143,97.2845,35.4926,80.6435,187.4638,0,U,69989,999,195,-.37878E-2,-.1690895E-1,.8475E-3
STARLINK-38070,2026-159R,2026-07-15T20:00:01.999008,15.98139311,.0001352,97.2844,35.4933,76.9221,193.1283,0,U,69990,999,195,-.36926E-2,-.167232E-1,.83259E-3
STARLINK-38042,2026-159S,2026-07-15T20:00:01.999008,15.98246873,.0001535,97.2842,35.4935,92.8321,178.0629,0,U,69991,999,195,-.36544E-2,-.1664999E-1,.82678E-3
STARLINK-38071,2026-159T,2026-07-15T20:00:01.999008,15.98354993,.0001213,97.2843,35.4940,89.7258,182.0383,0,U,69992,999,195,-.35732E-2,-.1638008E-1,.80294E-3
STARLINK-38082,2026-159U,2026-07-15T20:00:01.999008,15.98474350,.0001488,97.2843,35.4943,94.5008,178.1570,0,U,69993,999,195,-.35611E-2,-.1643293E-1,.80884E-3
STARLINK-38090,2026-159V,2026-07-15T20:00:01.999008,15.98580348,.0001356,97.2843,35.4947,91.6834,181.8873,0,U,69994,999,195,-.34678E-2,-.1610028E-1,.77953E-3
STARLINK-38084,2026-159W,2026-07-15T20:00:01.999008,15.98721924,.0001247,97.2843,35.4952,79.4466,195.1011,0,U,69995,999,195,-.34709E-2,-.1624009E-1,.79342E-3
STARLINK-38085,2026-159X,2026-07-15T20:00:01.999008,15.98824657,.0001525,97.2843,35.4956,88.7873,186.6048,0,U,69996,999,195,-.34368E-2,-.1617413E-1,.78833E-3
STARLINK-38091,2026-159Y,2026-07-15T20:00:01.999008,15.98945288,.0001367,97.2843,35.4959,88.6294,187.7205,0,U,69997,999,195,-.33814E-2,-.1602195E-1,.77562E-3
STARLINK-38086,2026-159Z,2026-07-15T20:00:01.999008,15.99015607,.0001506,97.2844,35.4964,106.9792,170.2963,0,U,69998,999,195,-.32265E-2,-.1535604E-1,.71731E-3
