STARLINK-37896          
1 69970U 26157AD  26196.83335647 -.02221223  14072-2 -49049-2 0  9995
2 69970  53.1589 292.4200 0000983  65.1322 168.7440 15.97521248  2255
STARLINK-37922          
1 69971U 26157AE  26196.83335647 -.02233682  14228-2 -49261-2 0  9997
2 69971  53.1588 292.4182 0001039  67.1577 167.5659 15.97545275  2256
CHUANG XIN 26 (CX-26)   
1 69972U 26158A   26194.51442212 -.00000212  00000+0 -21871-4 0  9997
2 69972  49.9860 287.5119 0004887 294.2352  65.8050 14.25122238   462
CZ-10B DEB              
1 69973U 26158B   26194.58513205  .00000099  00000+0  11013-3 0  9993
2 69973  49.9846 287.2193 0005701 305.8104  54.2279 14.24885997   479
CZ-10B R/B              
1 69974U 26158C   26194.56253036  .00000143  00000+0  55130-4 0  9994
2 69974  49.9631 286.3519 0197944 194.8878 164.6170 14.64293949   480
STARLINK-38024          
1 69975U 26159A   26196.83335647 -.01894281  10282-2 -46803-2 0  9995
2 69975  97.2850  35.4874 0001430  90.8207 164.5743 15.96104038  1956
STARLINK-37993          
1 69976U 26159B   26196.83335647 -.01871448  10064-2 -45911-2 0  9993
2 69976  97.2850  35.4875 0001529  93.9867 162.2754 15.96233185  1956
STARLINK-37995          
1 69977U 26159C   26196.83335647 -.01843510  97980-3 -44903-2 0  9996
2 69977  97.2849  35.4880 0001566  93.2316 163.9612 15.96362584  1951
STARLINK-38057          
1 69978U 26159D   26196.83335647 -.01827594  96553-3 -44158-2 0  9998
2 69978  97.2849  35.4882 0001570  90.5938 167.6097 15.96509576  1951
STARLINK-38063          
1 69979U 26159E   26196.83335647 -.01826875  96647-3 -43770-2 0  9993
2 69979  97.2849  35.4888 0001545  89.1120 170.1322 15.96665517  1955
STARLINK-38093          
1 69980U 26159F   26196.83335647 -.01813535  95485-3 -43093-2 0  9991
2 69980  97.2848  35.4891 0001420  95.6310 164.6759 15.96816489  1953
STARLINK-38050          
1 69981U 26159G   26196.83335647 -.01805174  94808-3 -42565-2 0  9993
2 69981  97.2848  35.4895 0001511  88.1969 173.0896 15.96956889  1951
STARLINK-38065          
1 69982U 26159H   26196.83335647 -.01782339  92716-3 -41702-2 0  9999
2 69982  97.2847  35.4903 0001457  94.2470 168.0642 15.97096735  1954
STARLINK-38077          
1 69983U 26159J   26196.83335647 -.01765450  91215-3 -40995-2 0  9991
2 69983  97.2847  35.4907 0001370  95.4519 167.8671 15.97233717  1952
STARLINK-38068          
1 69984U 26159K   26196.83335647 -.01761396  90950-3 -40616-2 0  9992
2 69984  97.2846  35.4910 0001489  94.6637 169.5433 15.97360946  1959
STARLINK-38089          
1 69985U 26159L   26196.83335647 -.01737527  88793-3 -39760-2 0  9992
2 69985  97.2846  35.4914 0001382  98.2189 167.0321 15.97498219  1952
STARLINK-38073          
1 69986U 26159M   26196.83335647 -.01736753  88852-3 -39446-2 0  9990
2 69986  97.2846  35.4918 0001514  93.0878 173.1242 15.97634418  1955
STARLINK-38099          
1 69987U 26159N   26196.83335647 -.01724631  87816-3 -38902-2 0  9998
2 69987  97.2845  35.4921 0001503  94.8700 172.2528 15.97758278  1958
STARLINK-38064          
1 69988U 26159P   26196.83335647 -.01679590  83811-3 -37364-2 0  9994
2 69988  97.2844  35.4928 0001301  88.8838 180.1741 15.98005127  1950
STARLINK-38080          
1 69989U 26159Q   26196.83335647 -.01690895  84750-3 -37878-2 0  9999
2 69989  97.2845  35.4926 0001430  80.6435 187.4638 15.97880245  1952
STARLINK-38070          
1 69990U 26159R   26196.83335647 -.01672320  83259-3 -36926-2 0  9990
2 69990  97.2844  35.4933 0001352  76.9221 193.1283 15.98139311  1957
STARLINK-38042          
1 69991U 26159S   26196.83335647 -.01664999  82678-3 -36544-2 0  9994
2 69991  97.2842  35.4935 0001535  92.8321 178.0629 15.98246873  1957
STARLINK-38071          
1 69992U 26159T   26196.83335647 -.01638008  80294-3 -35732-2 0  9997
2 69992  97.2843  35.4940 0001213  89.7258 182.0383 15.98354993  1957
STARLINK-38082          
1 69993U 26159U   26196.83335647 -.01643293  80884-3 -35611-2 0  9991
2 69993  97.2843  35.4943 0001488  94.5008 178.1570 15.98474350  1956
STARLINK-38090          
1 69994U 26159V   26196.83335647 -.01610028  77953-3 -34678-2 0  9997
2 69994  97.2843  35.4947 0001356  91.6834 181.8873 15.98580348  1952
STARLINK-38084          
1 69995U 26159W   26196.83335647 -.01624009  79342-3 -34709-2 0  9991
2 69995  97.2843  35.4952 0001247  79.4466 195.1011 15.98721924  1952
STARLINK-38085          
1 69996U 26159X   26196.83335647 -.01617413  78833-3 -34368-2 0  9998
2 69996  97.2843  35.4956 0001525  88.7873 186.6048 15.98824657  1953
STARLINK-38091          
1 69997U 26159Y   26196.83335647 -.01602195  77562-3 -33814-2 0  9993
2 69997  97.2843  35.4959 0001367  88.6294 187.7205 15.98945288  1958
STARLINK-38086          
1 69998U 26159Z   26196.83335647 -.01535604  71731-3 -32265-2 0  9995
2 69998  97.2844  35.4964 0001506 106.9792 170.2963 15.99015607  1950
